ONEWEB-0281             
1 48999U 21060AJ  24029.50912921 -.00000216  00000+0 -59755-3 0  9998
2 48999  87.9040  41.8495 0001828  97.0141 263.1197 13.16593715125199
ONEWEB-0282             
1 49000U 21060AK  24030.07120778 -.00000011  00000+0 -63687-4 0  9990
2 49000  87.9040  41.7543 0002207  83.9671 276.1712 13.16592883126564
ONEWEB-0283             
1 49001U 21060AL  24030.06013768  .00000138  00000+0  32848-3 0  9992
2 49001  87.9038  41.7641 0002219  93.7077 266.4308 13.16594395126577
ONEWEB-0284             
1 49002U 21060AM  24030.50975583 -.00000292  00000+0 -79734-3 0  9992
2 49002  87.9035  41.6670 0002032  87.3376 272.7988 13.16593962126607
ONEWEB-0285             
1 49075U 21075A   24030.41494637  .00000004  00000+0 -23778-4 0  9992
2 49075  87.9034 163.5186 0001571 100.5718 259.5588 13.12444442122235
ONEWEB-0286             
1 49076U 21075B   24030.38620701 -.00000244  00000+0 -71393-3 0  9994
2 49076  87.9028 163.5311 0001128 110.1270 249.9980 13.12440842121583
ONEWEB-0287             
1 49077U 21075C   24030.45740590 -.00000056  00000+0 -17843-3 0  9993
2 49077  87.9230 178.6208 0001156  87.0211 273.1053 13.17647480120197
ONEWEB-0288             
1 49078U 21075D   24029.37925387  .00000016  00000+0  10098-4 0  9992
2 49078  87.9029 163.7344 0001340  95.8400 264.2881 13.12443388121098
